OBJECT_NAME,OBJECT_ID,EPOCH,MEAN_MOTION,ECCENTRICITY,INCLINATION,RA_OF_ASC_NODE,ARG_OF_PERICENTER,MEAN_ANOMALY,EPHEMERIS_TYPE,CLASSIFICATION_TYPE,NORAD_CAT_ID,ELEMENT_SET_NO,REV_AT_EPOCH,BSTAR,MEAN_MOTION_DOT,MEAN_MOTION_DDOT
STARLINK-37998,2026-145C,2026-07-18T20:00:01.999008,15.75220628,.0001446,97.2839,46.8576,93.3692,132.3440,0,U,69679,999,501,-.71221E-3,-.105205E-2,0
STARLINK-37994,2026-145D,2026-07-18T12:58:49.574784,15.75243900,.0001274,97.2831,46.5456,111.3981,248.7420,0,U,69680,999,370,.95752E-3,.145487E-2,0
STARLINK-37992,2026-145E,2026-07-18T12:58:19.119648,15.75260476,.0001304,97.2836,46.5461,109.2353,250.9053,0,U,69681,999,370,.1255E-2,.191905E-2,0
STARLINK-37997,2026-145F,2026-07-17T00:00:02.000160,15.75175815,.00011924,97.2838,44.9322,99.5818,174.9569,0,U,69682,999,471,-.22624739E-4,-.3501E-4,0
STARLINK-37990,2026-145G,2026-07-18T12:57:48.605760,15.75238562,.0001619,97.2833,46.5468,108.6389,251.5052,0,U,69683,999,370,.82606469E-3,.125169E-2,0
STARLINK-37951,2026-145H,2026-07-18T20:00:01.999008,15.75267004,.000149,97.2840,46.8578,88.9466,138.7298,0,U,69684,999,501,-.10752E-2,-.158101E-2,0
STARLINK-37957,2026-145J,2026-07-18T12:54:45.572544,15.75251212,.00012936,97.2833,46.5496,105.7908,254.3500,0,U,69685,999,370,.13545019E-2,.207434E-2,0
STARLINK-37968,2026-145K,2026-07-18T20:23:40.701696,15.74647428,.001776,97.2836,46.8912,108.8766,251.4426,0,U,69686,999,375,.82958E-3,.12366E-2,0
STARLINK-37977,2026-145L,2026-07-18T12:45:06.343488,15.75259432,.00016139,97.2835,46.5594,112.1942,247.9495,0,U,69687,999,370,.12632992E-2,.193204E-2,0
STARLINK-37908,2026-145M,2026-07-18T00:30:13.097952,15.75224120,.00016825,97.2836,46.0301,78.6283,281.5171,0,U,69688,999,362,.14324506E-2,.219435E-2,0
STARLINK-37979,2026-145N,2026-07-18T12:41:32.875872,15.75226628,.00012728,97.2841,46.5634,107.2217,252.9188,0,U,69689,999,370,.73170334E-3,.110607E-2,0
STARLINK-37940,2026-145P,2026-07-18T01:59:40.338528,15.75385283,.00046875,97.2842,46.0992,57.8817,302.2903,0,U,69690,999,363,.13387316E-2,.206266E-2,0
STARLINK-37961,2026-145Q,2026-07-18T12:35:26.927808,15.75265952,.00023793,97.2848,46.5693,115.2848,244.8664,0,U,69691,999,370,.12018923E-2,.18366E-2,0
STARLINK-37787,2026-145R,2026-07-18T12:32:23.711424,15.75275704,.00013202,97.2837,46.5713,124.0872,236.0519,0,U,69692,999,370,.13706231E-2,.210196E-2,0
STARLINK-37962,2026-145S,2026-07-18T12:29:51.572256,15.75255701,.00011478,97.2837,46.5741,98.3652,261.7743,0,U,69693,999,370,.13039226E-2,.199536E-2,0
STARLINK-37953,2026-145T,2026-07-18T20:11:19.540032,15.75211066,.0001851,97.2842,46.9034,98.4396,261.7079,0,U,69694,999,375,.92025E-3,.139526E-2,0
STARLINK-37926,2026-145U,2026-07-18T12:32:54.494880,15.75263200,.00014736,97.2840,46.5720,108.5665,251.5760,0,U,69695,999,370,.12395824E-2,.189522E-2,0
STARLINK-37959,2026-145V,2026-07-18T12:31:23.038752,15.75245600,.00012258,97.2834,46.5716,101.4679,258.6724,0,U,69696,999,370,.11668843E-2,.178021E-2,0
STARLINK-37976,2026-145W,2026-07-18T12:27:19.028736,15.75232776,.00011517,97.2841,46.5763,104.1940,255.9454,0,U,69697,999,370,.12340254E-2,.188398E-2,0
STARLINK-37912,2026-145X,2026-07-18T12:25:47.591616,15.75248002,.00009158,97.2840,46.5784,115.9651,244.1708,0,U,69698,999,370,.12545784E-2,.19174E-2,0
STARLINK-37974,2026-145Y,2026-07-18T20:02:10.688352,15.75209258,.000171,97.2851,46.9126,97.0709,263.0751,0,U,69699,999,375,.86438E-3,.130903E-2,0
STARLINK-37955,2026-145Z,2026-07-18T19:58:37.211232,15.75188800,.0001645,97.2847,46.9164,102.5903,257.5546,0,U,69700,999,375,.92954E-3,.14082E-2,0
STRIX-8,2026-146A,2026-07-18T19:17:38.433984,15.04452047,.000667,41.9906,353.1022,48.6201,311.5198,0,U,69701,999,332,.17136E-3,.2247E-4,0
ELECTRON R/B,2026-146B,2026-07-17T18:23:06.421920,15.77324602,.01615665,42.0718,346.7898,38.4259,322.7976,0,U,69702,999,331,.92609454E-3,.396064E-2,.57822482E-4
ELECTRON KICK STAGE R/B,2026-146C,2026-07-18T19:06:46.835424,15.04958126,.000854,41.9888,353.0412,49.1820,310.9747,0,U,69703,999,332,.14038E-3,.1832E-4,0
STARLINK-38055,2026-147A,2026-07-18T20:10:36.499008,15.80889155,.0001056,97.2833,236.4382,75.8236,284.3150,0,U,69704,999,443,.99546E-3,.195521E-2,0
STARLINK-37898,2026-147B,2026-07-18T20:09:24.202080,15.80891461,.0001491,97.2839,236.4396,70.3240,289.8189,0,U,69705,999,443,.77733E-3,.151898E-2,0
STARLINK-37970,2026-147C,2026-07-18T14:03:43.444800,15.80803510,.0001249,97.2825,236.1724,61.2460,298.8934,0,U,69706,999,439,.76917E-3,.149659E-2,0
STARLINK-37975,2026-147D,2026-07-18T14:02:38.304384,15.80849322,.0000815,97.2836,236.1738,52.4354,307.6988,0,U,69707,999,439,.1153E-2,.226889E-2,0
STARLINK-37972,2026-147E,2026-07-18T14:01:33.716064,15.80816421,.0001654,97.2831,236.1754,71.7291,288.4157,0,U,69708,999,439,.77452E-3,.150813E-2,0
